{"fetched_at":"2026-07-21T07:06:30.167Z","source":"https://celestrak.org/NORAD/elements/gp.php?GROUP=planet&FORMAT=JSON","constellation":"tanager","records":[{"OBJECT_NAME":"TANAGER-1","OBJECT_ID":"2024-149AR","EPOCH":"2026-07-20T11:07:38.995392","CLASSIFICATION_TYPE":"U","MEAN_MOTION":15.43951978,"ECCENTRICITY":0.00006643,"INCLINATION":97.2339,"RA_OF_ASC_NODE":295.5681,"ARG_OF_PERICENTER":118.6821,"MEAN_ANOMALY":241.4495,"EPHEMERIS_TYPE":0,"NORAD_CAT_ID":60507,"ELEMENT_SET_NO":999,"REV_AT_EPOCH":10817,"BSTAR":0.00000608044,"MEAN_MOTION_DOT":0.00000193,"MEAN_MOTION_DDOT":0}]}
