TANAGER-1               
1 60507U 24149AR  26201.46364578  .00000193  00000+0  60804-5 0  9997
2 60507  97.2339 295.5681 0000664 118.6821 241.4495 15.43951978108170
